HAIYANG-1B              
1 31113U 07010A   26182.89795429  .00000094  00000+0  51588-4 0  9992
2 31113  98.3502 164.1730 0013981 152.9001 207.2915 14.31030546  2746
GOSAT (IBUKI)           
1 33492U 09002A   26181.77478987 -.00000059  00000+0 -19586-5 0  9996
2 33492  98.0904 292.6868 0001216  80.5142 279.6200 14.67536972933454
HAIYANG-2A              
1 37781U 11043A   26182.23608220  .00000161  00000+0  21773-3 0  9997
2 37781  99.3390 184.5963 0004752  61.7209 298.4419 13.73990655748587
GOKTURK 2               
1 39030U 12073A   26182.93177566  .00001003  00000+0  15417-3 0  9995
2 39030  97.6808  19.6236 0001078  61.4974 298.6345 14.75559419726685
GPM-CORE                
1 39574U 14009C   26182.77630891  .00011702  00000+0  25232-3 0  9999
2 39574  64.9714 259.2565 0011292 257.4312 102.5566 15.44873450700063
GOKTURK 1A              
1 41875U 16073A   26182.95254826  .00000616  00000+0  12984-3 0  9991
2 41875  98.1239  77.3953 0001434  76.5871 283.5490 14.62785478510985
GOES 17                 
1 43226U 18022A   26182.92328278 -.00000173  00000+0  00000+0 0  9990
2 43226   0.9725  85.4803 0000737  39.6239  37.7514  1.00271957 30573
GOES 18                 
1 51850U 22021A   26182.77130932  .00000107  00000+0  00000+0 0  9993
2 51850   0.0058 307.6791 0000560 188.3702 284.4375  1.00271354  6739
GOES 19                 
1 60133U 24119A   26182.95597142 -.00000238  00000+0  00000+0 0  9993
2 60133   0.0102  90.1119 0000523  65.5493  33.3013  1.00271416  7115
GOSAT-GW (IBUKI GW)     
1 64694U 25141A   26182.91734443  .00000675  00000+0  12733-3 0  9992
2 64694  98.0568 119.9950 0001466  85.7490 274.3882 14.67556421 54005
